{"url": "https://aviationweather.gov/api/data/metar?ids=KDTW&format=json", "payload": [{"icaoId": "KDTW", "receiptTime": "2026-03-26T05:58:17.486Z", "obsTime": 1774504380, "reportTime": "2026-03-26T06:00:00.000Z", "temp": 13.3, "dewp": 2.2, "wdir": 230, "wspd": 14, "visib": 9, "altim": 1010.2, "slp": 1010.1, "qcField": 4, "presTend": -0.6, "maxT": 15, "minT": 11.1, "metarType": "METAR", "rawOb": "METAR KDTW 260553Z 23014KT 9SM FEW065 SCT140 BKN250 13/02 A2983 RMK AO2 SLP101 T01330022 10150 20111 56006", "lat": 42.2311, "lon": -83.3312, "elev": 192, "name": "Detroit/Metro Wayne Cnty, MI, US", "cover": "BKN", "clouds": [{"cover": "FEW", "base": 6500}, {"cover": "SCT", "base": 14000}, {"cover": "BKN", "base": 25000}], "fltCat": "VFR"}]}